{
  "type": "FeatureCollection",
  "features": [
    {
      "type": "Feature",
      "properties": {
        "norad_id": 2807,
        "name": "OPS 7218 (TRANSIT 16)",
        "group": "nnss",
        "lat": -57.32157359353702,
        "lon": -6.222209830540484,
        "alt_km": 1092.3772988345263,
        "timestamp": "2025-12-04T13:52:00.711149+00:00",
        "meta_object_name": "OPS 7218 (TRANSIT 16)",
        "meta_object_id": "1967-048A",
        "meta_epoch": "2025-12-04T07:05:44.140128",
        "meta_mean_motion": 13.50719871,
        "meta_eccentricity": 0.00215238,
        "meta_inclination": 89.6735,
        "meta_ra_of_asc_node": 354.2964,
        "meta_arg_of_pericenter": 136.8182,
        "meta_mean_anomaly": 234.7725,
        "meta_ephemeris_type": 0,
        "meta_classification_type": "U",
        "meta_norad_cat_id": 2807,
        "meta_element_set_no": 999,
        "meta_rev_at_epoch": 88162,
        "meta_bstar": 0.00026566985,
        "meta_mean_motion_dot": 1.81e-06,
        "meta_mean_motion_ddot": 0,
        "tle_line1": "1 02807U 67048A   25338.29564977  .00000181  00000+0  26567-3 0  9990",
        "tle_line2": "2 02807  89.6735 354.2964 0021523 136.8182 234.7725 13.50719871881629"
      },
      "geometry": {
        "type": "Point",
        "coordinates": [
          -6.222209830540484,
          -57.32157359353702
        ]
      }
    },
    {
      "type": "Feature",
      "properties": {
        "norad_id": 2965,
        "name": "OPS 4947 (TRANSIT 17)",
        "group": "nnss",
        "lat": -72.74674371384188,
        "lon": 22.642646229729916,
        "alt_km": 1036.931011027612,
        "timestamp": "2025-12-04T13:52:00.711171+00:00",
        "meta_object_name": "OPS 4947 (TRANSIT 17)",
        "meta_object_id": "1967-092A",
        "meta_epoch": "2025-12-04T05:41:34.423008",
        "meta_mean_motion": 13.53450473,
        "meta_eccentricity": 0.00458088,
        "meta_inclination": 89.2506,
        "meta_ra_of_asc_node": 25.0838,
        "meta_arg_of_pericenter": 260.0683,
        "meta_mean_anomaly": 168.4895,
        "meta_ephemeris_type": 0,
        "meta_classification_type": "U",
        "meta_norad_cat_id": 2965,
        "meta_element_set_no": 999,
        "meta_rev_at_epoch": 86982,
        "meta_bstar": 0.00029150481,
        "meta_mean_motion_dot": 2.08e-06,
        "meta_mean_motion_ddot": 0,
        "tle_line1": "1 02965U 67092A   25338.23720397  .00000208  00000+0  29150-3 0  9999",
        "tle_line2": "2 02965  89.2506  25.0838 0045808 260.0683 168.4895 13.53450473869829"
      },
      "geometry": {
        "type": "Point",
        "coordinates": [
          22.642646229729916,
          -72.74674371384188
        ]
      }
    },
    {
      "type": "Feature",
      "properties": {
        "norad_id": 3133,
        "name": "OPS 7034 (TRANSIT 18)",
        "group": "nnss",
        "lat": 49.04039623920378,
        "lon": 93.64735181505002,
        "alt_km": 1036.287204395836,
        "timestamp": "2025-12-04T13:52:00.711185+00:00",
        "meta_object_name": "OPS 7034 (TRANSIT 18)",
        "meta_object_id": "1968-012A",
        "meta_epoch": "2025-12-04T08:29:21.451200",
        "meta_mean_motion": 13.51562895,
        "meta_eccentricity": 0.00730726,
        "meta_inclination": 90.0271,
        "meta_ra_of_asc_node": 273.6155,
        "meta_arg_of_pericenter": 193.5437,
        "meta_mean_anomaly": 288.5138,
        "meta_ephemeris_type": 0,
        "meta_classification_type": "U",
        "meta_norad_cat_id": 3133,
        "meta_element_set_no": 999,
        "meta_rev_at_epoch": 56805,
        "meta_bstar": 0.00023367647,
        "meta_mean_motion_dot": 1.64e-06,
        "meta_mean_motion_ddot": 0,
        "tle_line1": "1 03133U 68012A   25338.35372050  .00000164  00000+0  23368-3 0  9998",
        "tle_line2": "2 03133  90.0271 273.6155 0073072 193.5437 288.5138 13.51562895568055"
      },
      "geometry": {
        "type": "Point",
        "coordinates": [
          93.64735181505002,
          49.04039623920378
        ]
      }
    },
    {
      "type": "Feature",
      "properties": {
        "norad_id": 4507,
        "name": "NNSS 19 (TRANSIT 19)",
        "group": "nnss",
        "lat": 68.63626931778461,
        "lon": 54.54240538922374,
        "alt_km": 1175.094204123423,
        "timestamp": "2025-12-04T13:52:00.711198+00:00",
        "meta_object_name": "NNSS 19 (TRANSIT 19)",
        "meta_object_id": "1970-067A",
        "meta_epoch": "2025-12-04T06:12:26.286048",
        "meta_mean_motion": 13.51311721,
        "meta_eccentricity": 0.01711231,
        "meta_inclination": 90.0056,
        "meta_ra_of_asc_node": 234.5279,
        "meta_arg_of_pericenter": 318.1321,
        "meta_mean_anomaly": 40.6845,
        "meta_ephemeris_type": 0,
        "meta_classification_type": "U",
        "meta_norad_cat_id": 4507,
        "meta_element_set_no": 999,
        "meta_rev_at_epoch": 72107,
        "meta_bstar": 0.00033885106,
        "meta_mean_motion_dot": 2.49e-06,
        "meta_mean_motion_ddot": 0,
        "tle_line1": "1 04507U 70067A   25338.25863757  .00000249  00000+0  33885-3 0  9994",
        "tle_line2": "2 04507  90.0056 234.5279 0171123 318.1321  40.6845 13.51311721721073"
      },
      "geometry": {
        "type": "Point",
        "coordinates": [
          54.54240538922374,
          68.63626931778461
        ]
      }
    },
    {
      "type": "Feature",
      "properties": {
        "norad_id": 6909,
        "name": "NNSS 20 (TRANSIT 20)",
        "group": "nnss",
        "lat": -48.152649373579955,
        "lon": -104.98467690581047,
        "alt_km": 1101.3877574624248,
        "timestamp": "2025-12-04T13:52:00.711209+00:00",
        "meta_object_name": "NNSS 20 (TRANSIT 20)",
        "meta_object_id": "1973-081A",
        "meta_epoch": "2025-12-04T07:06:04.212576",
        "meta_mean_motion": 13.71428658,
        "meta_eccentricity": 0.01564837,
        "meta_inclination": 89.8557,
        "meta_ra_of_asc_node": 255.1808,
        "meta_arg_of_pericenter": 103.3213,
        "meta_mean_anomaly": 258.5452,
        "meta_ephemeris_type": 0,
        "meta_classification_type": "U",
        "meta_norad_cat_id": 6909,
        "meta_element_set_no": 999,
        "meta_rev_at_epoch": 80245,
        "meta_bstar": 0.000354009,
        "meta_mean_motion_dot": 3.59e-06,
        "meta_mean_motion_ddot": 0,
        "tle_line1": "1 06909U 73081A   25338.29588209  .00000359  00000+0  35401-3 0  9999",
        "tle_line2": "2 06909  89.8557 255.1808 0156483 103.3213 258.5452 13.71428658802452"
      },
      "geometry": {
        "type": "Point",
        "coordinates": [
          -104.98467690581047,
          -48.152649373579955
        ]
      }
    },
    {
      "type": "Feature",
      "properties": {
        "norad_id": 10457,
        "name": "TRANSAT",
        "group": "nnss",
        "lat": -4.975752815548232,
        "lon": -101.08344696040089,
        "alt_km": 1063.6172739298072,
        "timestamp": "2025-12-04T13:52:00.711219+00:00",
        "meta_object_name": "TRANSAT",
        "meta_object_id": "1977-106A",
        "meta_epoch": "2025-12-04T07:54:30.025152",
        "meta_mean_motion": 13.48941689,
        "meta_eccentricity": 0.00246344,
        "meta_inclination": 89.6483,
        "meta_ra_of_asc_node": 78.8947,
        "meta_arg_of_pericenter": 214.3065,
        "meta_mean_anomaly": 205.7501,
        "meta_ephemeris_type": 0,
        "meta_classification_type": "U",
        "meta_norad_cat_id": 10457,
        "meta_element_set_no": 999,
        "meta_rev_at_epoch": 36630,
        "meta_bstar": 0.00021655131,
        "meta_mean_motion_dot": 1.46e-06,
        "meta_mean_motion_ddot": 0,
        "tle_line1": "1 10457U 77106A   25338.32951418  .00000146  00000+0  21655-3 0  9994",
        "tle_line2": "2 10457  89.6483  78.8947 0024634 214.3065 205.7501 13.48941689366301"
      },
      "geometry": {
        "type": "Point",
        "coordinates": [
          -101.08344696040089,
          -4.975752815548232
        ]
      }
    },
    {
      "type": "Feature",
      "properties": {
        "norad_id": 12458,
        "name": "NOVA 1",
        "group": "nnss",
        "lat": 60.352978874229926,
        "lon": -88.75935026700581,
        "alt_km": 1154.6865360540487,
        "timestamp": "2025-12-04T13:52:00.711230+00:00",
        "meta_object_name": "NOVA 1",
        "meta_object_id": "1981-044A",
        "meta_epoch": "2025-12-04T08:05:42.491904",
        "meta_mean_motion": 13.23277067,
        "meta_eccentricity": 0.0015613,
        "meta_inclination": 89.8522,
        "meta_ra_of_asc_node": 91.5039,
        "meta_arg_of_pericenter": 124.6939,
        "meta_mean_anomaly": 289.9394,
        "meta_ephemeris_type": 0,
        "meta_classification_type": "U",
        "meta_norad_cat_id": 12458,
        "meta_element_set_no": 999,
        "meta_rev_at_epoch": 15075,
        "meta_bstar": 0.00015908377,
        "meta_mean_motion_dot": 7.6e-07,
        "meta_mean_motion_ddot": 0,
        "tle_line1": "1 12458U 81044A   25338.33729736  .00000076  00000+0  15908-3 0  9996",
        "tle_line2": "2 12458  89.8522  91.5039 0015613 124.6939 289.9394 13.23277067150753"
      },
      "geometry": {
        "type": "Point",
        "coordinates": [
          -88.75935026700581,
          60.352978874229926
        ]
      }
    }
  ]
}